{"type": "FeatureCollection", "features": [ {"type": "Feature", "properties": {"norad_id": 47068, "name": "COSMOS 2251 DEB", "group": "cosmos-2251-debris", "lat": -51.20885481273128, "lon": -160.8041608025997, "alt_km": 709.190497191842, "timestamp": "2025-12-03T22:42:33.031012+00:00", "meta": {"OBJECT_NAME": "COSMOS 2251 DEB", "OBJECT_ID": "1993-036BXY", "EPOCH": "2025-12-03T09:44:17.538720", "MEAN_MOTION": 14.53041706, "ECCENTRICITY": 0.0018474, "INCLINATION": 74.0247, "RA_OF_ASC_NODE": 221.0956, "ARG_OF_PERICENTER": 308.5367, "MEAN_ANOMALY": 51.4138, "EPHEMERIS_TYPE": 0, "CLASSIFICATION_TYPE": "U", "NORAD_CAT_ID": 47068, "ELEMENT_SET_NO": 999, "REV_AT_EPOCH": 61621, "BSTAR": 0.0013184, "MEAN_MOTION_DOT": 5.433e-05, "MEAN_MOTION_DDOT": 0}, "tle": {"line1": "1 47068U 93036BXY 25337.40575855  .00005433  00000+0  13184-2 0  9998", "line2": "2 47068  74.0247 221.0956 0018474 308.5367  51.4138 14.53041706616211"}}, "geometry": {"type": "Point", "coordinates": [-160.8041608025997, -51.20885481273128]}}, {"type": "Feature", "properties": {"norad_id": 47073, "name": "COSMOS 2251 DEB", "group": "cosmos-2251-debris", "lat": -18.463370084640527, "lon": 42.6106550087736, "alt_km": 818.7547777200716, "timestamp": "2025-12-03T22:42:33.031021+00:00", "meta": {"OBJECT_NAME": "COSMOS 2251 DEB", "OBJECT_ID": "1993-036BYD", "EPOCH": "2025-11-28T23:48:38.837952", "MEAN_MOTION": 14.04684181, "ECCENTRICITY": 0.01626495, "INCLINATION": 74.0833, "RA_OF_ASC_NODE": 225.7586, "ARG_OF_PERICENTER": 267.1836, "MEAN_ANOMALY": 91.0675, "EPHEMERIS_TYPE": 0, "CLASSIFICATION_TYPE": "U", "NORAD_CAT_ID": 47073, "ELEMENT_SET_NO": 999, "REV_AT_EPOCH": 60168, "BSTAR": 0.0003803633, "MEAN_MOTION_DOT": 6.6e-06, "MEAN_MOTION_DDOT": 0}, "tle": {"line1": "1 47073U 93036BYD 25332.99211618  .00000660  00000+0  38036-3 0  9998", "line2": "2 47073  74.0833 225.7586 0162649 267.1836  91.0675 14.04684181601680"}}, "geometry": {"type": "Point", "coordinates": [42.6106550087736, -18.463370084640527]}}, {"type": "Feature", "properties": {"norad_id": 47074, "name": "COSMOS 2251 DEB", "group": "cosmos-2251-debris", "lat": 70.17158842065339, "lon": 92.53455913254572, "alt_km": 794.4153282643138, "timestamp": "2025-12-03T22:42:33.031031+00:00", "meta": {"OBJECT_NAME": "COSMOS 2251 DEB", "OBJECT_ID": "1993-036BYE", "EPOCH": "2025-11-16T21:16:13.914624", "MEAN_MOTION": 14.35315626, "ECCENTRICITY": 0.01424183, "INCLINATION": 74.0922, "RA_OF_ASC_NODE": 355.9879, "ARG_OF_PERICENTER": 30.5468, "MEAN_ANOMALY": 146.7456, "EPHEMERIS_TYPE": 0, "CLASSIFICATION_TYPE": "U", "NORAD_CAT_ID": 47074, "ELEMENT_SET_NO": 999, "REV_AT_EPOCH": 2311, "BSTAR": 0.002262034, "MEAN_MOTION_DOT": 7.254e-05, "MEAN_MOTION_DDOT": 0}, "tle": {"line1": "1 47074U 93036BYE 25320.88627216  .00007254  00000+0  22620-2 0  9996", "line2": "2 47074  74.0922 355.9879 0142418  30.5468 146.7456 14.35315626 23116"}}, "geometry": {"type": "Point", "coordinates": [92.53455913254572, 70.17158842065339]}}, {"type": "Feature", "properties": {"norad_id": 47116, "name": "COSMOS 2251 DEB", "group": "cosmos-2251-debris", "lat": 43.349013980422725, "lon": 62.85902547967232, "alt_km": 583.315584715373, "timestamp": "2025-12-03T22:42:33.031041+00:00", "meta": {"OBJECT_NAME": "COSMOS 2251 DEB", "OBJECT_ID": "1993-036BYJ", "EPOCH": "2025-11-28T02:40:22.126944", "MEAN_MOTION": 14.97052334, "ECCENTRICITY": 0.00224176, "INCLINATION": 74.0247, "RA_OF_ASC_NODE": 270.3586, "ARG_OF_PERICENTER": 5.4926, "MEAN_ANOMALY": 12.2387, "EPHEMERIS_TYPE": 0, "CLASSIFICATION_TYPE": "U", "NORAD_CAT_ID": 47116, "ELEMENT_SET_NO": 999, "REV_AT_EPOCH": 59292, "BSTAR": 0.0024991708, "MEAN_MOTION_DOT": 0.00029033, "MEAN_MOTION_DDOT": 0}, "tle": {"line1": "1 47116U 93036BYJ 25332.11136721  .00029033  00000+0  24992-2 0  9991", "line2": "2 47116  74.0247 270.3586 0022417   5.4926  12.2387 14.97052334592926"}}, "geometry": {"type": "Point", "coordinates": [62.85902547967232, 43.349013980422725]}}, {"type": "Feature", "properties": {"norad_id": 53093, "name": "COSMOS 2251 DEB", "group": "cosmos-2251-debris", "lat": -64.26490295717274, "lon": -78.67787468940497, "alt_km": 763.2103948363629, "timestamp": "2025-12-03T22:42:33.031050+00:00", "meta": {"OBJECT_NAME": "COSMOS 2251 DEB", "OBJECT_ID": "1993-036BYP", "EPOCH": "2025-12-03T09:42:31.468032", "MEAN_MOTION": 14.4178878, "ECCENTRICITY": 0.001868, "INCLINATION": 74.036, "RA_OF_ASC_NODE": 318.7566, "ARG_OF_PERICENTER": 38.1854, "MEAN_ANOMALY": 322.0621, "EPHEMERIS_TYPE": 0, "CLASSIFICATION_TYPE": "U", "NORAD_CAT_ID": 53093, "ELEMENT_SET_NO": 999, "REV_AT_EPOCH": 17591, "BSTAR": 0.0012928, "MEAN_MOTION_DOT": 4.208e-05, "MEAN_MOTION_DDOT": 0}, "tle": {"line1": "1 53093U 93036BYP 25337.40453088  .00004208  00000+0  12928-2 0  9990", "line2": "2 53093  74.0360 318.7566 0018680  38.1854 322.0621 14.41788780175917"}}, "geometry": {"type": "Point", "coordinates": [-78.67787468940497, -64.26490295717274]}}]}